APRIZESAT 2             
1 28366U 04025A   26168.42387750  .00000120  00000+0  50852-4 0  9991
2 28366  98.1014 334.3908 0104347 249.1238 109.8754 14.38035860151670
SAUDICOMSAT 1           
1 28369U 04025D   26168.49746812  .00000289  00000+0  77390-4 0  9991
2 28369  98.5771 178.6372 0032618  24.7481 335.5271 14.55473999164178
SAUDICOMSAT 2           
1 28370U 04025E   26168.88418362  .00000181  00000+0  58689-4 0  9993
2 28370  98.6640 181.1502 0054184 257.3262 102.1870 14.49981565160202
APRIZESAT 1             
1 28372U 04025G   26168.84607451  .00000177  00000+0  55634-4 0  9992
2 28372  98.6302 179.5896 0045154 151.8789 208.4858 14.51777299162001
NANOSAT-1               
1 28493U 04049B   26168.84510461  .00000811  00000+0  11407-3 0  9990
2 28493  98.2278 305.5221 0002807 299.5592  60.5339 14.80160746155543
SAUDICOMSAT 7           
1 31119U 07012C   26168.86350581  .00000335  00000+0  69180-4 0  9992
2 31119  98.3778 143.0090 0055340 193.0583 166.9191 14.66110755 22533
SAUDICOMSAT 6           
1 31121U 07012E   26168.84282595  .00000464  00000+0  98500-4 0  9993
2 31121  98.4098 136.3714 0071016 325.7127  33.9499 14.62559109 20286
SAUDICOMSAT 5           
1 31124U 07012H   26168.90416678  .00000504  00000+0  95175-4 0  9994
2 31124  98.3489 143.7975 0048489 122.4974 238.0931 14.68157167 23706
SAUDICOMSAT 3           
1 31125U 07012J   26168.86349291  .00000682  00000+0  11928-3 0  9996
2 31125  98.3143 144.3042 0040206  51.1711 309.3072 14.70706805 24927
SAUDICOMSAT 4           
1 31127U 07012L   26168.83787498  .00000341  00000+0  72569-4 0  9991
2 31127  98.3983 141.4216 0062079 256.1492 103.2798 14.64512777 21386
APRIZESAT 4             
1 35684U 09041D   26168.72906586  .00000516  00000+0  68318-4 0  9997
2 35684  98.1413 244.0604 0042369 321.2611  38.5566 14.83879933911441
APRIZESAT 3             
1 35686U 09041F   26168.90147219  .00001554  00000+0  13822-3 0  9991
2 35686  98.2063 322.1593 0062802  65.4571 295.3178 14.96243859916483
S-NET D                 
1 43186U 18014G   26168.79175732  .00003959  00000+0  20549-3 0  9998
2 43186  97.5361  73.5787 0008883  28.6350 331.5369 15.16678645458852
S-NET B                 
1 43187U 18014H   26168.80322318  .00004210  00000+0  21848-3 0  9999
2 43187  97.5366  73.5769 0009387  23.3551 336.8107 15.16648511458850
S-NET A                 
1 43188U 18014J   26168.65868170  .00003875  00000+0  20114-3 0  9995
2 43188  97.5378  73.6419 0009280  24.6066 335.5608 15.16685227458839
S-NET C                 
1 43189U 18014K   26168.80710228  .00004375  00000+0  22689-3 0  9998
2 43189  97.5396  73.8643 0010376  15.6904 344.4648 15.16640692457402
SALSAT                  
1 46495U 20068K   26168.53797512  .00006219  00000+0  21821-3 0  9990
2 46495  97.8847 171.6239 0008040 306.6544  53.3955 15.29803905315418
OOV-CUBE (TUBSAT-30)    
1 60240U 24128F   26168.65432347  .00001478  00000+0  12352-3 0  9991
2 60240  61.9933 223.9441 0044583 133.8615 226.6174 15.02775098106189
LPNTSAT-001 (IOD-1)     
1 68408U 26065A   26168.60392418  .00002280  00000+0  11336-3 0  9999
2 68408  97.4013  49.1049 0016616   9.3580 350.7960 15.18539953 12321
